start=new Date('2021-08-24T00:00:00.000Z').valueOf();
sats=[{"CLASSIFICATION_TYPE":"U","OBJECT_ID":"2021-017AZ","MEAN_MOTION_DOT":"-0.00000758","GP_ID":"183330433","RA_OF_ASC_NODE":"78.3670","OBJECT_NAME":"STARLINK-2192","MEAN_ANOMALY":"255.1412","TLE_LINE1":"1 47769U 21017AZ  21235.87516094 -.00000758  00000-0 -32008-4 0  9996","LAUNCH_DATE":"2021-03-04","OBJECT_TYPE":"PAYLOAD","COUNTRY_CODE":"US","MEAN_MOTION_DDOT":"0.0000000000000","FILE":"3102124","CENTER_NAME":"EARTH","TIME_SYSTEM":"UTC","MEAN_MOTION":"15.06394004","DECAY_DATE":null,"ELEMENT_SET_NO":"999","SEMIMAJOR_AXIS":"6925.367","EPOCH":"2021-08-23T21:00:13.905216","INCLINATION":"53.0440","SITE":"AFETR","PERIAPSIS":"545.872","PERIOD":"95.593","RCS_SIZE":"LARGE","REV_AT_EPOCH":"2803","ECCENTRICITY":"0.00019630","TLE_LINE2":"2 47769  53.0440  78.3670 0001963 104.9795 255.1412 15.06394004 28031","REF_FRAME":"TEME","NORAD_CAT_ID":"47769","APOAPSIS":"548.591","BSTAR":"-0.00003200800000","EPHEMERIS_TYPE":"0","ARG_OF_PERICENTER":"104.9795","MEAN_ELEMENT_THEORY":"SGP4"},{"GP_ID":"183330684","MEAN_MOTION_DOT":"0.00000519","OBJECT_NAME":"STARLINK-2193","RA_OF_ASC_NODE":"93.2993","CLASSIFICATION_TYPE":"U","OBJECT_ID":"2021-017BA","FILE":"3102124","MEAN_MOTION_DDOT":"0.0000000000000","COUNTRY_CODE":"US","CENTER_NAME":"EARTH","MEAN_ANOMALY":"264.8820","OBJECT_TYPE":"PAYLOAD","LAUNCH_DATE":"2021-03-04","TLE_LINE1":"1 47770U 21017BA  21235.87836356  .00000519  00000-0  53780-4 0  9997","PERIAPSIS":"545.882","SITE":"AFETR","RCS_SIZE":"LARGE","PERIOD":"95.593","ELEMENT_SET_NO":"999","MEAN_MOTION":"15.06390315","DECAY_DATE":null,"TIME_SYSTEM":"UTC","INCLINATION":"53.0548","EPOCH":"2021-08-23T21:04:50.611584","SEMIMAJOR_AXIS":"6925.378","NORAD_CAT_ID":"47770","ARG_OF_PERICENTER":"95.2393","MEAN_ELEMENT_THEORY":"SGP4","EPHEMERIS_TYPE":"0","BSTAR":"0.00005378000000","APOAPSIS":"548.605","ECCENTRICITY":"0.00019660","REV_AT_EPOCH":"2780","REF_FRAME":"TEME","TLE_LINE2":"2 47770  53.0548  93.2993 0001966  95.2393 264.8820 15.06390315 27800"},{"OBJECT_TYPE":"PAYLOAD","LAUNCH_DATE":"2021-03-04","TLE_LINE1":"1 47771U 21017BB  21235.89403890  .00000515  00000-0  53466-4 0  9990","MEAN_ANOMALY":"275.0073","CENTER_NAME":"EARTH","FILE":"3102124","MEAN_MOTION_DDOT":"0.0000000000000","COUNTRY_CODE":"US","OBJECT_ID":"2021-017BB","CLASSIFICATION_TYPE":"U","OBJECT_NAME":"STARLINK-2194","RA_OF_ASC_NODE":"93.2248","GP_ID":"183330935","MEAN_MOTION_DOT":"0.00000515","REF_FRAME":"TEME","TLE_LINE2":"2 47771  53.0555  93.2248 0002151  85.1162 275.0073 15.06400884 27819","ECCENTRICITY":"0.00021510","REV_AT_EPOCH":"2781","MEAN_ELEMENT_THEORY":"SGP4","ARG_OF_PERICENTER":"85.1162","EPHEMERIS_TYPE":"0","BSTAR":"0.00005346600000","APOAPSIS":"548.700","NORAD_CAT_ID":"47771","INCLINATION":"53.0555","EPOCH":"2021-08-23T21:27:24.960960","SEMIMAJOR_AXIS":"6925.346","ELEMENT_SET_NO":"999","MEAN_MOTION":"15.06400884","DECAY_DATE":null,"TIME_SYSTEM":"UTC","RCS_SIZE":"LARGE","PERIOD":"95.592","PERIAPSIS":"545.721","SITE":"AFETR"},{"SITE":"AFETR","PERIAPSIS":"546.205","RCS_SIZE":"LARGE","PERIOD":"95.592","TIME_SYSTEM":"UTC","ELEMENT_SET_NO":"999","MEAN_MOTION":"15.06394338","DECAY_DATE":null,"EPOCH":"2021-08-23T22:47:42.017568","SEMIMAJOR_AXIS":"6925.366","INCLINATION":"53.0546","NORAD_CAT_ID":"47772","BSTAR":"0.00006239600000","APOAPSIS":"548.257","ARG_OF_PERICENTER":"106.6365","MEAN_ELEMENT_THEORY":"SGP4","EPHEMERIS_TYPE":"0","REV_AT_EPOCH":"2758","ECCENTRICITY":"0.00014810","TLE_LINE2":"2 47772  53.0546 107.9809 0001481 106.6365 253.4787 15.06394338 27587","REF_FRAME":"TEME","MEAN_MOTION_DOT":"0.00000648","GP_ID":"183329683","RA_OF_ASC_NODE":"107.9809","OBJECT_NAME":"STARLINK-2195","CLASSIFICATION_TYPE":"U","OBJECT_ID":"2021-017BC","COUNTRY_CODE":"US","FILE":"3102124","MEAN_MOTION_DDOT":"0.0000000000000","CENTER_NAME":"EARTH","MEAN_ANOMALY":"253.4787","TLE_LINE1":"1 47772U 21017BC  21235.94979187  .00000648  00000-0  62396-4 0  9993","OBJECT_TYPE":"PAYLOAD","LAUNCH_DATE":"2021-03-04"},{"TLE_LINE2":"2 47773  53.0548 108.0019 0002056  67.2462 292.8744 15.06393811 27578","REF_FRAME":"TEME","REV_AT_EPOCH":"2757","ECCENTRICITY":"0.00020560","APOAPSIS":"548.656","BSTAR":"-0.00004412300000","EPHEMERIS_TYPE":"0","MEAN_ELEMENT_THEORY":"SGP4","ARG_OF_PERICENTER":"67.2462","NORAD_CAT_ID":"47773","SEMIMAJOR_AXIS":"6925.368","EPOCH":"2021-08-23T22:42:24.684192","INCLINATION":"53.0548","TIME_SYSTEM":"UTC","DECAY_DATE":null,"MEAN_MOTION":"15.06393811","ELEMENT_SET_NO":"999","PERIOD":"95.593","RCS_SIZE":"LARGE","SITE":"AFETR","PERIAPSIS":"545.809","TLE_LINE1":"1 47773U 21017BD  21235.94611903 -.00000939  00000-0 -44123-4 0  9996","LAUNCH_DATE":"2021-03-04","OBJECT_TYPE":"PAYLOAD","MEAN_ANOMALY":"292.8744","CENTER_NAME":"EARTH","COUNTRY_CODE":"US","MEAN_MOTION_DDOT":"0.0000000000000","FILE":"3102124","OBJECT_ID":"2021-017BD","CLASSIFICATION_TYPE":"U","RA_OF_ASC_NODE":"108.0019","OBJECT_NAME":"STARLINK-2196","MEAN_MOTION_DOT":"-0.00000939","GP_ID":"183329933"},{"TLE_LINE1":"1 47774U 21017BE  21235.94243149 -.00000735  00000-0 -30448-4 0  9999","LAUNCH_DATE":"2021-03-04","OBJECT_TYPE":"PAYLOAD","MEAN_ANOMALY":"284.3542","CENTER_NAME":"EARTH","COUNTRY_CODE":"US","MEAN_MOTION_DDOT":"0.0000000000000","FILE":"3102124","OBJECT_ID":"2021-017BE","CLASSIFICATION_TYPE":"U","RA_OF_ASC_NODE":"108.0142","OBJECT_NAME":"STARLINK-2197","MEAN_MOTION_DOT":"-0.00000735","GP_ID":"183331185","TLE_LINE2":"2 47774  53.0553 108.0142 0002442  75.7718 284.3542 15.06394569 27583","REF_FRAME":"TEME","REV_AT_EPOCH":"2758","ECCENTRICITY":"0.00024420","APOAPSIS":"548.921","BSTAR":"-0.00003044800000","EPHEMERIS_TYPE":"0","MEAN_ELEMENT_THEORY":"SGP4","ARG_OF_PERICENTER":"75.7718","NORAD_CAT_ID":"47774","SEMIMAJOR_AXIS":"6925.365","EPOCH":"2021-08-23T22:37:06.080736","INCLINATION":"53.0553","TIME_SYSTEM":"UTC","MEAN_MOTION":"15.06394569","DECAY_DATE":null,"ELEMENT_SET_NO":"999","PERIOD":"95.592","RCS_SIZE":"LARGE","SITE":"AFETR","PERIAPSIS":"545.539"},{"RCS_SIZE":"LARGE","PERIOD":"95.593","SITE":"AFETR","PERIAPSIS":"545.679","EPOCH":"2021-08-23T21:17:28.813920","SEMIMAJOR_AXIS":"6925.384","INCLINATION":"53.0556","TIME_SYSTEM":"UTC","ELEMENT_SET_NO":"999","MEAN_MOTION":"15.06388437","DECAY_DATE":null,"BSTAR":"0.00006141200000","APOAPSIS":"548.819","ARG_OF_PERICENTER":"76.0644","MEAN_ELEMENT_THEORY":"SGP4","EPHEMERIS_TYPE":"0","NORAD_CAT_ID":"47775","TLE_LINE2":"2 47775  53.0556 108.2787 0002267  76.0644 284.0597 15.06388437 27620","REF_FRAME":"TEME","REV_AT_EPOCH":"2762","ECCENTRICITY":"0.00022670","RA_OF_ASC_NODE":"108.2787","OBJECT_NAME":"STARLINK-2198","MEAN_MOTION_DOT":"0.00000633","GP_ID":"183331436","OBJECT_ID":"2021-017BF","CLASSIFICATION_TYPE":"U","CENTER_NAME":"EARTH","COUNTRY_CODE":"US","FILE":"3102124","MEAN_MOTION_DDOT":"0.0000000000000","TLE_LINE1":"1 47775U 21017BF  21235.88713905  .00000633  00000-0  61412-4 0  9995","OBJECT_TYPE":"PAYLOAD","LAUNCH_DATE":"2021-03-04","MEAN_ANOMALY":"284.0597"},{"CENTER_NAME":"EARTH","COUNTRY_CODE":"US","MEAN_MOTION_DDOT":"0.0000000000000","FILE":"3102124","TLE_LINE1":"1 47776U 21017BG  21235.91385807 -.00001131  00000-0 -57039-4 0  9992","LAUNCH_DATE":"2021-03-04","OBJECT_TYPE":"PAYLOAD","MEAN_ANOMALY":"290.6272","RA_OF_ASC_NODE":"98.1483","OBJECT_NAME":"STARLINK-2209","MEAN_MOTION_DOT":"-0.00001131","GP_ID":"183330184","OBJECT_ID":"2021-017BG","CLASSIFICATION_TYPE":"U","APOAPSIS":"548.741","BSTAR":"-0.00005703900000","EPHEMERIS_TYPE":"0","MEAN_ELEMENT_THEORY":"SGP4","ARG_OF_PERICENTER":"69.4951","NORAD_CAT_ID":"47776","TLE_LINE2":"2 47776  53.0559  98.1483 0002184  69.4951 290.6272 15.06395128 27739","REF_FRAME":"TEME","REV_AT_EPOCH":"2773","ECCENTRICITY":"0.00021840","PERIOD":"95.592","RCS_SIZE":"LARGE","SITE":"AFETR","PERIAPSIS":"545.716","SEMIMAJOR_AXIS":"6925.363","EPOCH":"2021-08-23T21:55:57.337248","INCLINATION":"53.0559","TIME_SYSTEM":"UTC","DECAY_DATE":null,"MEAN_MOTION":"15.06395128","ELEMENT_SET_NO":"999"},{"CENTER_NAME":"EARTH","COUNTRY_CODE":"US","MEAN_MOTION_DDOT":"0.0000000000000","FILE":"3102124","TLE_LINE1":"1 47777U 21017BH  21235.91753927  .00000565  00000-0  56830-4 0  9991","LAUNCH_DATE":"2021-03-04","OBJECT_TYPE":"PAYLOAD","MEAN_ANOMALY":"283.9935","RA_OF_ASC_NODE":"98.1344","OBJECT_NAME":"STARLINK-2210","MEAN_MOTION_DOT":"0.00000565","GP_ID":"183330434","OBJECT_ID":"2021-017BH","CLASSIFICATION_TYPE":"U","APOAPSIS":"548.789","BSTAR":"0.00005683000000","EPHEMERIS_TYPE":"0","ARG_OF_PERICENTER":"76.1308","MEAN_ELEMENT_THEORY":"SGP4","NORAD_CAT_ID":"47777","TLE_LINE2":"2 47777  53.0563  98.1344 0002281  76.1308 283.9935 15.06401231 27734","REF_FRAME":"TEME","REV_AT_EPOCH":"2773","ECCENTRICITY":"0.00022810","PERIOD":"95.592","RCS_SIZE":"LARGE","SITE":"AFETR","PERIAPSIS":"545.630","SEMIMAJOR_AXIS":"6925.345","EPOCH":"2021-08-23T22:01:15.392928","INCLINATION":"53.0563","TIME_SYSTEM":"UTC","MEAN_MOTION":"15.06401231","DECAY_DATE":null,"ELEMENT_SET_NO":"999"},{"OBJECT_ID":"2021-017BJ","CLASSIFICATION_TYPE":"U","OBJECT_NAME":"STARLINK-2211","RA_OF_ASC_NODE":"98.4309","GP_ID":"183330685","MEAN_MOTION_DOT":"-0.00000960","OBJECT_TYPE":"PAYLOAD","LAUNCH_DATE":"2021-03-04","TLE_LINE1":"1 47778U 21017BJ  21235.88142765 -.00000960  00000-0 -46716-4 0  9993","MEAN_ANOMALY":"269.7110","CENTER_NAME":"EARTH","FILE":"3102124","MEAN_MOTION_DDOT":"0.0000000000000","COUNTRY_CODE":"US","INCLINATION":"53.0563","EPOCH":"2021-08-23T21:09:15.348960","SEMIMAJOR_AXIS":"6927.867","ELEMENT_SET_NO":"999","DECAY_DATE":null,"MEAN_MOTION":"15.05578638","TIME_SYSTEM":"UTC","RCS_SIZE":"LARGE","PERIOD":"95.644","PERIAPSIS":"548.256","SITE":"AFETR","REF_FRAME":"TEME","TLE_LINE2":"2 47778  53.0563  98.4309 0002131  90.4123 269.7110 15.05578638 27728","ECCENTRICITY":"0.00021310","REV_AT_EPOCH":"2772","ARG_OF_PERICENTER":"90.4123","MEAN_ELEMENT_THEORY":"SGP4","EPHEMERIS_TYPE":"0","BSTAR":"-0.00004671600000","APOAPSIS":"551.208","NORAD_CAT_ID":"47778"}];
